[{"OBJECT_NAME":"STARLINK-2515","OBJECT_ID":"2021-036AZ","EPOCH":"2026-03-10T00:00:02.999808","MEAN_MOTION":15.25832305,"ECCENTRICITY":0.00014246,"INCLINATION":53.1397,"RA_OF_ASC_NODE":99.5284,"ARG_OF_PERICENTER":94.5239,"MEAN_ANOMALY":78.0467,"EPHEMERIS_TYPE":0,"CLASSIFICATION_TYPE":"U","NORAD_CAT_ID":48323,"ELEMENT_SET_NO":999,"REV_AT_EPOCH":579,"BSTAR":0.064747321,"MEAN_MOTION_DOT":0.01845518,"MEAN_MOTION_DDOT":0},{"OBJECT_NAME":"LEMUR-2-CAEL","OBJECT_ID":"2024-022E","EPOCH":"2026-03-09T13:30:59.818176","MEAN_MOTION":15.37664327,"ECCENTRICITY":0.0009522,"INCLINATION":97.4213,"RA_OF_ASC_NODE":278.283,"ARG_OF_PERICENTER":94.7172,"MEAN_ANOMALY":265.516,"EPHEMERIS_TYPE":0,"CLASSIFICATION_TYPE":"U","NORAD_CAT_ID":58903,"ELEMENT_SET_NO":999,"REV_AT_EPOCH":11701,"BSTAR":0.0005045,"MEAN_MOTION_DOT":0.00018622,"MEAN_MOTION_DDOT":0}]
